{
  "type": "FeatureCollection",
  "features": [
    {
      "type": "Feature",
      "properties": {
        "norad_id": 41599,
        "name": "CARTOSAT-2C",
        "group": "resource",
        "lat": -7.90448160871074,
        "lon": -131.94452814481912,
        "alt_km": 518.5017194137399,
        "timestamp": "2025-12-17T21:39:45.366014+00:00",
        "meta_object_name": "CARTOSAT-2C",
        "meta_object_id": "2016-040A",
        "meta_epoch": "2025-12-17T16:05:47.594400",
        "meta_mean_motion": 15.19158635,
        "meta_eccentricity": 0.00113114,
        "meta_inclination": 97.4763,
        "meta_ra_of_asc_node": 48.8707,
        "meta_arg_of_pericenter": 47.451,
        "meta_mean_anomaly": 312.7678,
        "meta_ephemeris_type": 0,
        "meta_classification_type": "U",
        "meta_norad_cat_id": 41599,
        "meta_element_set_no": 999,
        "meta_rev_at_epoch": 52615,
        "meta_bstar": 0.00017422247,
        "meta_mean_motion_dot": 3.599e-05,
        "meta_mean_motion_ddot": 0,
        "tle_line1": "1 41599U 16040A   25351.67068975  .00003599  00000+0  17422-3 0  9997",
        "tle_line2": "2 41599  97.4763  48.8707 0011311  47.4510 312.7678 15.19158635526155"
      },
      "geometry": {
        "type": "Point",
        "coordinates": [
          -131.94452814481912,
          -7.90448160871074
        ]
      }
    },
    {
      "type": "Feature",
      "properties": {
        "norad_id": 41601,
        "name": "SKYSAT-C1",
        "group": "resource",
        "lat": 47.91809268511855,
        "lon": -143.573794365845,
        "alt_km": 464.45861730749857,
        "timestamp": "2025-12-17T21:39:45.366023+00:00",
        "meta_object_name": "SKYSAT-C1",
        "meta_object_id": "2016-040C",
        "meta_epoch": "2025-12-17T14:49:23.156832",
        "meta_mean_motion": 15.32678311,
        "meta_eccentricity": 0.00018094,
        "meta_inclination": 96.9823,
        "meta_ra_of_asc_node": 28.3568,
        "meta_arg_of_pericenter": 359.3867,
        "meta_mean_anomaly": 0.7374,
        "meta_ephemeris_type": 0,
        "meta_classification_type": "U",
        "meta_norad_cat_id": 41601,
        "meta_element_set_no": 999,
        "meta_rev_at_epoch": 53002,
        "meta_bstar": 0.00024013946,
        "meta_mean_motion_dot": 7.507e-05,
        "meta_mean_motion_ddot": 0,
        "tle_line1": "1 41601U 16040C   25351.61762913  .00007507  00000+0  24014-3 0  9996",
        "tle_line2": "2 41601  96.9823  28.3568 0001809 359.3867   0.7374 15.32678311530020"
      },
      "geometry": {
        "type": "Point",
        "coordinates": [
          -143.573794365845,
          47.91809268511855
        ]
      }
    },
    {
      "type": "Feature",
      "properties": {
        "norad_id": 41603,
        "name": "LAPAN-A3",
        "group": "resource",
        "lat": -73.85805915561295,
        "lon": 143.59729022119967,
        "alt_km": 475.0579141787284,
        "timestamp": "2025-12-17T21:39:45.366033+00:00",
        "meta_object_name": "LAPAN-A3",
        "meta_object_id": "2016-040E",
        "meta_epoch": "2025-12-17T14:16:39.767808",
        "meta_mean_motion": 15.31591586,
        "meta_eccentricity": 0.00091672,
        "meta_inclination": 97.1423,
        "meta_ra_of_asc_node": 348.9747,
        "meta_arg_of_pericenter": 314.4675,
        "meta_mean_anomaly": 45.5816,
        "meta_ephemeris_type": 0,
        "meta_classification_type": "U",
        "meta_norad_cat_id": 41603,
        "meta_element_set_no": 999,
        "meta_rev_at_epoch": 52700,
        "meta_bstar": 0.00011314493,
        "meta_mean_motion_dot": 3.381e-05,
        "meta_mean_motion_ddot": 0,
        "tle_line1": "1 41603U 16040E   25351.59490472  .00003381  00000+0  11314-3 0  9998",
        "tle_line2": "2 41603  97.1423 348.9747 0009167 314.4675  45.5816 15.31591586527004"
      },
      "geometry": {
        "type": "Point",
        "coordinates": [
          143.59729022119967,
          -73.85805915561295
        ]
      }
    },
    {
      "type": "Feature",
      "properties": {
        "norad_id": 41604,
        "name": "BIROS",
        "group": "resource",
        "lat": 80.35892017398784,
        "lon": -109.53070997691233,
        "alt_km": 288.27622070746474,
        "timestamp": "2025-12-17T21:39:45.366042+00:00",
        "meta_object_name": "BIROS",
        "meta_object_id": "2016-040F",
        "meta_epoch": "2025-12-17T15:13:21.855072",
        "meta_mean_motion": 15.91577007,
        "meta_eccentricity": 0.0003703,
        "meta_inclination": 97.0677,
        "meta_ra_of_asc_node": 23.2697,
        "meta_arg_of_pericenter": 135.7681,
        "meta_mean_anomaly": 224.389,
        "meta_ephemeris_type": 0,
        "meta_classification_type": "U",
        "meta_norad_cat_id": 41604,
        "meta_element_set_no": 999,
        "meta_rev_at_epoch": 52950,
        "meta_bstar": 0.00056136978,
        "meta_mean_motion_dot": 0.00180274,
        "meta_mean_motion_ddot": 1.3913944e-05,
        "tle_line1": "1 41604U 16040F   25351.63428073  .00180274  13914-4  56137-3 0  9994",
        "tle_line2": "2 41604  97.0677  23.2697 0003703 135.7681 224.3890 15.91577007529507"
      },
      "geometry": {
        "type": "Point",
        "coordinates": [
          -109.53070997691233,
          80.35892017398784
        ]
      }
    },
    {
      "type": "Feature",
      "properties": {
        "norad_id": 41727,
        "name": "GAOFEN-3",
        "group": "resource",
        "lat": 4.945758482834855,
        "lon": 178.1435962533876,
        "alt_km": 753.902904978253,
        "timestamp": "2025-12-17T21:39:45.366051+00:00",
        "meta_object_name": "GAOFEN-3",
        "meta_object_id": "2016-049A",
        "meta_epoch": "2025-12-17T14:11:38.796864",
        "meta_mean_motion": 14.42215027,
        "meta_eccentricity": 0.00012995,
        "meta_inclination": 98.4037,
        "meta_ra_of_asc_node": 357.1042,
        "meta_arg_of_pericenter": 58.3455,
        "meta_mean_anomaly": 301.7862,
        "meta_ephemeris_type": 0,
        "meta_classification_type": "U",
        "meta_norad_cat_id": 41727,
        "meta_element_set_no": 999,
        "meta_rev_at_epoch": 49247,
        "meta_bstar": 5.0177076e-05,
        "meta_mean_motion_dot": 1.22e-06,
        "meta_mean_motion_ddot": 0,
        "tle_line1": "1 41727U 16049A   25351.59142126  .00000122  00000+0  50177-4 0  9995",
        "tle_line2": "2 41727  98.4037 357.1042 0001299  58.3455 301.7862 14.42215027492478"
      },
      "geometry": {
        "type": "Point",
        "coordinates": [
          178.1435962533876,
          4.945758482834855
        ]
      }
    },
    {
      "type": "Feature",
      "properties": {
        "norad_id": 41771,
        "name": "SKYSAT-C4",
        "group": "resource",
        "lat": -65.61267731690064,
        "lon": -178.73889346961815,
        "alt_km": 446.8938633858161,
        "timestamp": "2025-12-17T21:39:45.366060+00:00",
        "meta_object_name": "SKYSAT-C4",
        "meta_object_id": "2016-058B",
        "meta_epoch": "2025-12-17T14:22:08.091264",
        "meta_mean_motion": 15.42388294,
        "meta_eccentricity": 0.00019426,
        "meta_inclination": 96.9369,
        "meta_ra_of_asc_node": 16.5506,
        "meta_arg_of_pericenter": 131.7444,
        "meta_mean_anomaly": 228.3971,
        "meta_ephemeris_type": 0,
        "meta_classification_type": "U",
        "meta_norad_cat_id": 41771,
        "meta_element_set_no": 999,
        "meta_rev_at_epoch": 51742,
        "meta_bstar": 0.00028161381,
        "meta_mean_motion_dot": 0.00012085,
        "meta_mean_motion_ddot": 0,
        "tle_line1": "1 41771U 16058B   25351.59870476  .00012085  00000+0  28161-3 0  9998",
        "tle_line2": "2 41771  96.9369  16.5506 0001942 131.7444 228.3971 15.42388294517424"
      },
      "geometry": {
        "type": "Point",
        "coordinates": [
          -178.73889346961815,
          -65.61267731690064
        ]
      }
    },
    {
      "type": "Feature",
      "properties": {
        "norad_id": 41772,
        "name": "SKYSAT-C5",
        "group": "resource",
        "lat": 9.456832344241061,
        "lon": 34.25396096192787,
        "alt_km": 466.2562362330218,
        "timestamp": "2025-12-17T21:39:45.366069+00:00",
        "meta_object_name": "SKYSAT-C5",
        "meta_object_id": "2016-058C",
        "meta_epoch": "2025-12-17T15:21:31.669632",
        "meta_mean_motion": 15.339631,
        "meta_eccentricity": 0.0003766,
        "meta_inclination": 97.0757,
        "meta_ra_of_asc_node": 35.1878,
        "meta_arg_of_pericenter": 270.2229,
        "meta_mean_anomaly": 89.8583,
        "meta_ephemeris_type": 0,
        "meta_classification_type": "U",
        "meta_norad_cat_id": 41772,
        "meta_element_set_no": 999,
        "meta_rev_at_epoch": 51591,
        "meta_bstar": 0.00022831886,
        "meta_mean_motion_dot": 7.429e-05,
        "meta_mean_motion_ddot": 0,
        "tle_line1": "1 41772U 16058C   25351.63994988  .00007429  00000+0  22832-3 0  9994",
        "tle_line2": "2 41772  97.0757  35.1878 0003766 270.2229  89.8583 15.33963100515919"
      },
      "geometry": {
        "type": "Point",
        "coordinates": [
          34.25396096192787,
          9.456832344241061
        ]
      }
    }
  ]
}